1 48644U 21044G   22255.78212470  .00000494  00000-0  52086-4 0  9996
2 48644  53.0541  80.4207 0001600  78.0459 282.0710 15.06402400 71704
1 48644U 21044G   22255.91482018 -.00001311  00000-0 -69130-4 0  9997
2 48644  53.0542  79.8239 0001439  90.7340 269.3814 15.06402393 72561
1 48644U 21044G   22256.24655970 -.00000541  00000-0 -17422-4 0  9994
2 48644  53.0540  78.3345 0001377  90.9175 269.1972 15.06392442 71778
1 48644U 21044G   22256.24655970 -.00000541  00000-0 -17422-4 0  9994
2 48644  53.0540  78.3345 0001377  90.9175 269.1972 15.06392442 72612
1 48644U 21044G   22256.51194395 -.00000315  00000-0 -22338-5 0  9995
2 48644  53.0540  77.1423 0001270  93.5291 266.5843 15.06397270 71819
1 48644U 21044G   22256.51194395 -.00000315  00000-0 -22338-5 0  9995
2 48644  53.0540  77.1423 0001270  93.5291 266.5843 15.06397270 72652
1 48644U 21044G   22257.77253298  .00001551  00000-0  12299-3 0  9996
2 48644  53.0539  71.4848 0001214  80.8475 279.2651 15.06396826 72002
1 48644U 21044G   22257.77253298  .00001551  00000-0  12299-3 0  9996
2 48644  53.0539  71.4848 0001214  80.8475 279.2651 15.06396826 72844
1 48644U 21044G   22258.43599814  .00002657  00000-0  19716-3 0  9996
2 48644  53.0531  68.5063 0001861  75.1151 285.0044 15.06404753 72107
1 48644U 21044G   22258.76773836  .00000810  00000-0  73311-4 0  9991
2 48644  53.0542  67.0162 0001846  83.3357 276.7842 15.06398303 72156
1 48644U 21044G   22259.16581865 -.00000193  00000-0  59298-5 0  9999
2 48644  53.0549  65.2289 0001757  82.0479 278.0710 15.06406968 73051
1 48644U 21044G   22259.49755547 -.00000505  00000-0 -15020-4 0  9997
2 48644  53.0551  63.7406 0001251  82.5706 277.5425 15.06398476 73102
1 48644U 21044G   22259.82928721  .00000301  00000-0  39105-4 0  9992
2 48644  53.0551  62.2510 0001354  83.0170 277.0973 15.06399186 72311
1 48644U 21044G   22260.16102896 -.00001480  00000-0 -80502-4 0  9996
2 48644  53.0552  60.7620 0001178  79.8853 280.2269 15.06390928 73200
1 48644U 21044G   22260.49276527  .00000249  00000-0  35651-4 0  9990
2 48644  53.0552  59.2725 0001366  82.0750 278.0394 15.06386362 72413
1 48644U 21044G   22260.89084239 -.00000265  00000-0  11263-5 0  9994
2 48644  53.0553  57.4854 0001349  80.3110 279.8031 15.06395472 72474
1 48644U 21044G   22260.95718944 -.00000195  00000-0  58104-5 0  9995
2 48644  53.0553  57.1875 0001411  79.5762 280.5386 15.06396325 73322
1 48644U 21044G   22261.48796015  .00002085  00000-0  15882-3 0  9992
2 48644  53.0554  54.8047 0001357  80.7261 279.3882 15.06399065 72561
1 48644U 21044G   22261.81969400  .00003823  00000-0  27534-3 0  9997
2 48644  53.0549  53.3156 0001391  79.3920 280.7226 15.06404607 72617
1 48644U 21044G   22262.15142878  .00003385  00000-0  24601-3 0  9992
2 48644  53.0549  51.8263 0001376  79.7107 280.4037 15.06403836 73502
1 48644U 21044G   22262.48316479  .00003170  00000-0  23163-3 0  9992
2 48644  53.0546  50.3372 0001380  78.7817 281.3327 15.06401178 72717
1 48644U 21044G   22262.81489517  .00004314  00000-0  30827-3 0  9999
2 48644  53.0546  48.8480 0001348  78.3626 281.7514 15.06408950 72769
1 48644U 21044G   22263.47836448  .00000410  00000-0  46390-4 0  9997
2 48644  53.0549  45.8696 0001367  79.7132 280.4011 15.06399743 73708
1 48644U 21044G   22263.87645381 -.00001519  00000-0 -83105-4 0  9993
2 48644  53.0559  44.0827 0001352  77.6496 282.4644 15.06391324 72924
1 48644U 21044G   22264.00914653 -.00001348  00000-0 -71616-4 0  9994
2 48644  53.0558  43.4870 0001365  74.5724 285.5416 15.06392829 73785
1 48644U 21044G   22264.80530276  .00000465  00000-0  50138-4 0  9990
2 48644  53.0560  39.9129 0001255  76.8516 283.2613 15.06399044 73901
1 48644U 21044G   22264.87164908  .00000504  00000-0  52708-4 0  9991
2 48644  53.0559  39.6150 0001255  76.1618 283.9510 15.06400042 73078
1 48644U 21044G   22265.53512386  .00000608  00000-0  59747-4 0  9997
2 48644  53.0560  36.6368 0001304  77.2191 282.8943 15.06392288 73172
1 48644U 21044G   22265.53512386  .00000608  00000-0  59747-4 0  9997
2 48644  53.0560  36.6368 0001304  77.2191 282.8943 15.06392288 74016
1 48644U 21044G   22266.53032451  .00001521  00000-0  12096-3 0  9998
2 48644  53.0561  32.1694 0001266  73.7773 286.3355 15.06397607 73323
1 48644U 21044G   22266.66301344  .00002366  00000-0  17768-3 0  9991
2 48644  53.0561  31.5736 0001279  74.8610 285.2521 15.06403648 73347
1 48644U 21044G   22266.66301344  .00002366  00000-0  17768-3 0  9991
2 48644  53.0561  31.5736 0001279  74.8610 285.2521 15.06403648 74180
1 48644U 21044G   22267.52552649  .00006877  00000-0  48042-3 0  9993
2 48644  53.0554  27.7038 0001092  91.9740 268.1374 15.06377706 74317
1 48644U 21044G   22267.59186990  .00001766  00000-0  13739-3 0  9999
2 48644  53.0549  27.4051 0001300  77.9006 282.2129 15.06403087 73488
1 48644U 21044G   22267.65821409  .00002898  00000-0  21335-3 0  9995
2 48644  53.0553  27.1071 0001385  74.3093 285.8049 15.06406098 74332
1 48644U 21044G   22267.85725701  .00006255  00000-0  43848-3 0  9999
2 48644  53.0554  26.2128 0001189  95.8598 264.2527 15.06393264 73528
1 48644U 21044G   22267.85725701  .00006255  00000-0  43848-3 0  9999
2 48644  53.0554  26.2128 0001189  95.8598 264.2527 15.06393264 74361
1 48644U 21044G   22268.52072334 -.00000484  00000-0 -13624-4 0  9991
2 48644  53.0551  23.2306 0001519 100.0896 260.0265 15.06403708 73626
1 48644U 21044G   22268.71976619 -.00000257  00000-0  16129-5 0  9992
2 48644  53.0562  22.3407 0001307  77.1608 282.9527 15.06404478 73652
1 48644U 21044G   22269.05150113 -.00000642  00000-0 -24199-4 0  9997
2 48644  53.0560  20.8519 0001279  74.5667 285.5463 15.06402695 74547
1 48644U 21044G   22269.38324037 -.00000238  00000-0  29362-5 0  9999
2 48644  53.0560  19.3621 0001453  77.9829 282.1322 15.06395621 74597
1 48644U 21044G   22269.58228033 -.00001159  00000-0 -58954-4 0  9992
2 48644  53.0562  18.4692 0001451  71.5054 288.6092 15.06399957 73786
1 48644U 21044G   22269.71497358 -.00001152  00000-0 -58422-4 0  9998
2 48644  53.0564  17.8743 0001476  68.3352 291.7794 15.06400534 73801
1 48644U 21044G   22270.44479088  .00000813  00000-0  73466-4 0  9996
2 48644  53.0566  14.5982 0001489  69.2042 290.9106 15.06395034 74753
1 48644U 21044G   22270.57748268  .00000960  00000-0  83347-4 0  9991
2 48644  53.0567  14.0024 0001474  69.6727 290.4421 15.06397025 73930
1 48644U 21044G   22270.77652026  .00001466  00000-0  11728-3 0  9994
2 48644  53.0566  13.1089 0001490  69.4661 290.6488 15.06400919 73968
1 48644U 21044G   22270.77652026  .00001466  00000-0  11728-3 0  9994
2 48644  53.0566  13.1089 0001490  69.4661 290.6488 15.06400919 74802
1 48644U 21044G   22271.57267971  .00002575  00000-0  19171-3 0  9996
2 48644  53.0568   9.5348 0001441  67.6760 292.4381 15.06403131 74088
1 48644U 21044G   22271.77171764  .00003002  00000-0  22026-3 0  9991
2 48644  53.0553   8.6404 0001429  62.7543 297.3592 15.06409231 74115
1 48644U 21044G   22272.43520793 -.00005316  00000-0 -33849-3 0  9992
2 48644  53.0557   5.6622 0001503  65.0928 295.0217 15.06372326 75051
1 48644U 21044G   22272.56790201 -.00004248  00000-0 -26661-3 0  9996
2 48644  53.0556   5.0668 0001493  65.1526 294.9618 15.06375343 74231
1 48644U 21044G   22272.83328854 -.00004734  00000-0 -29934-3 0  9993
2 48644  53.0553   3.8756 0001493  65.1248 294.9896 15.06376832 75113
1 48644U 21044G   22273.49676866  .00017797  00000-0  12111-2 0  9994
2 48644  53.0549   0.8973 0001523  65.7011 294.4137 15.06386782 74379
1 48644U 21044G   22273.69581033  .00020367  00000-0  13824-2 0  9996
2 48644  53.0548   0.0038 0001525  65.1524 294.9623 15.06395632 75243
1 48644U 21044G   22273.82850380  .00020992  00000-0  14239-2 0  9990
2 48644  53.0547 359.4081 0001542  64.8283 295.2865 15.06401548 74423
1 48644U 21044G   22274.49196481  .00017373  00000-0  11816-2 0  9996
2 48644  53.0547 356.4296 0001586  63.3152 296.7999 15.06423695 74527
1 48644U 21044G   22274.69100125  .00017837  00000-0  12123-2 0  9995
2 48644  53.0546 355.5360 0001603  63.1574 296.9578 15.06431675 74559
1 48644U 21044G   22275.22177179  .00005507  00000-0  38812-3 0  9993
2 48644  53.0547 353.1530 0001580  66.1403 293.9751 15.06419777 75472
1 48644U 21044G   22275.42081654 -.00004898  00000-0 -31017-3 0  9991
2 48644  53.0548 352.2595 0001566  61.9727 298.1420 15.06398076 75502
1 48644U 21044G   22275.48716368 -.00000850  00000-0 -38142-4 0  9995
2 48644  53.0548 351.9617 0001589  58.9557 301.1587 15.06400972 74670
1 48644U 21044G   22275.68620400  .00006357  00000-0  44524-3 0  9994
2 48644  53.0548 351.0681 0001532  61.0478 299.0664 15.06405336 74701
1 48644U 21044G   22276.15063115  .00021297  00000-0  14436-2 0  9999
2 48644  53.0549 348.9833 0001618  58.1287 301.9859 15.06419229 75612
1 48644U 21044G   22276.54870627  .00023934  00000-0  16188-2 0  9992
2 48644  53.0551 347.1962 0001620  57.0051 303.1094 15.06432627 74834
1 48644U 21044G   22276.68140076  .00014649  00000-0  99970-3 0  9999
2 48644  53.0551 346.6005 0001662  58.5924 301.5228 15.06422359 74851
1 48644U 21044G   22276.68140076  .00014649  00000-0  99970-3 0  9999
2 48644  53.0551 346.6005 0001662  58.5924 301.5228 15.06422359 75694
1 48644U 21044G   22277.47755878  .00000977  00000-0  84476-4 0  9994
2 48644  53.0551 343.0266 0001564  61.0801 299.0345 15.06403070 74978
1 48644U 21044G   22277.47755878  .00000977  00000-0  84476-4 0  9994
2 48644  53.0551 343.0266 0001564  61.0801 299.0345 15.06403070 75812
1 48644U 21044G   22277.87563872  .00000811  00000-0  73332-4 0  9995
2 48644  53.0552 341.2395 0001564  58.6665 301.4477 15.06401493 75031
1 48644U 21044G   22278.47276465 -.00000917  00000-0 -42639-4 0  9996
2 48644  53.0557 338.5592 0001603  55.1346 304.9794 15.06401214 75969
1 48644U 21044G   22278.53911529 -.00001525  00000-0 -83519-4 0  9998
2 48644  53.0557 338.2614 0001603  55.8454 304.2687 15.06397058 75131
1 48644U 21044G   22278.67181117 -.00002239  00000-0 -13150-3 0  9991
2 48644  53.0556 337.6656 0001614  56.0860 304.0283 15.06395317 75153
